{
  "type": "FeatureCollection",
  "features": [
    {
      "type": "Feature",
      "properties": {
        "norad_id": 40118,
        "name": "GAOFEN-2",
        "group": "resource",
        "lat": 48.74215356391903,
        "lon": 44.773010783141416,
        "alt_km": 618.3550679924438,
        "timestamp": "2025-12-20T20:38:44.101224+00:00",
        "meta_object_name": "GAOFEN-2",
        "meta_object_id": "2014-049A",
        "meta_epoch": "2025-12-20T13:56:08.560896",
        "meta_mean_motion": 14.80620965,
        "meta_eccentricity": 0.00087218,
        "meta_inclination": 98.0379,
        "meta_ra_of_asc_node": 53.7631,
        "meta_arg_of_pericenter": 91.1518,
        "meta_mean_anomaly": 269.0693,
        "meta_ephemeris_type": 0,
        "meta_classification_type": "U",
        "meta_norad_cat_id": 40118,
        "meta_element_set_no": 999,
        "meta_rev_at_epoch": 61280,
        "meta_bstar": 6.3160321e-05,
        "meta_mean_motion_dot": 4.31e-06,
        "meta_mean_motion_ddot": 0,
        "tle_line1": "1 40118U 14049A   25354.58065464  .00000431  00000+0  63160-4 0  9996",
        "tle_line2": "2 40118  98.0379  53.7631 0008721  91.1518 269.0693 14.80620965612803"
      },
      "geometry": {
        "type": "Point",
        "coordinates": [
          44.773010783141416,
          48.74215356391903
        ]
      }
    },
    {
      "type": "Feature",
      "properties": {
        "norad_id": 40143,
        "name": "YAOGAN-21",
        "group": "resource",
        "lat": -10.695494139031085,
        "lon": -143.54268313142984,
        "alt_km": 505.0923805564689,
        "timestamp": "2025-12-20T20:38:44.101234+00:00",
        "meta_object_name": "YAOGAN-21",
        "meta_object_id": "2014-053A",
        "meta_epoch": "2025-12-20T15:05:00.169152",
        "meta_mean_motion": 15.23752274,
        "meta_eccentricity": 0.00090325,
        "meta_inclination": 97.1746,
        "meta_ra_of_asc_node": 37.5989,
        "meta_arg_of_pericenter": 16.6349,
        "meta_mean_anomaly": 343.5184,
        "meta_ephemeris_type": 0,
        "meta_classification_type": "U",
        "meta_norad_cat_id": 40143,
        "meta_element_set_no": 999,
        "meta_rev_at_epoch": 62774,
        "meta_bstar": 0.00019061461,
        "meta_mean_motion_dot": 4.52e-05,
        "meta_mean_motion_ddot": 0,
        "tle_line1": "1 40143U 14053A   25354.62847418  .00004520  00000+0  19061-3 0  9994",
        "tle_line2": "2 40143  97.1746  37.5989 0009032  16.6349 343.5184 15.23752274627744"
      },
      "geometry": {
        "type": "Point",
        "coordinates": [
          -143.54268313142984,
          -10.695494139031085
        ]
      }
    },
    {
      "type": "Feature",
      "properties": {
        "norad_id": 40275,
        "name": "YAOGAN-22",
        "group": "resource",
        "lat": 67.06203738945332,
        "lon": 111.74264178450012,
        "alt_km": 1199.4833048526043,
        "timestamp": "2025-12-20T20:38:44.101245+00:00",
        "meta_object_name": "YAOGAN-22",
        "meta_object_id": "2014-063A",
        "meta_epoch": "2025-12-20T09:20:28.325472",
        "meta_mean_motion": 13.15522961,
        "meta_eccentricity": 0.00060229,
        "meta_inclination": 100.7426,
        "meta_ra_of_asc_node": 137.9168,
        "meta_arg_of_pericenter": 229.7335,
        "meta_mean_anomaly": 130.325,
        "meta_ephemeris_type": 0,
        "meta_classification_type": "U",
        "meta_norad_cat_id": 40275,
        "meta_element_set_no": 999,
        "meta_rev_at_epoch": 53630,
        "meta_bstar": 9.302356e-06,
        "meta_mean_motion_dot": -4.3e-07,
        "meta_mean_motion_ddot": 0,
        "tle_line1": "1 40275U 14063A   25354.38921673 -.00000043  00000+0  93024-5 0  9990",
        "tle_line2": "2 40275 100.7426 137.9168 0006022 229.7335 130.3250 13.15522961536302"
      },
      "geometry": {
        "type": "Point",
        "coordinates": [
          111.74264178450012,
          67.06203738945332
        ]
      }
    },
    {
      "type": "Feature",
      "properties": {
        "norad_id": 40298,
        "name": "ASNARO",
        "group": "resource",
        "lat": 61.2436768656735,
        "lon": -95.75740699043901,
        "alt_km": 497.24024338550134,
        "timestamp": "2025-12-20T20:38:44.101255+00:00",
        "meta_object_name": "ASNARO",
        "meta_object_id": "2014-070A",
        "meta_epoch": "2025-12-20T13:48:28.791072",
        "meta_mean_motion": 15.19646389,
        "meta_eccentricity": 0.00057139,
        "meta_inclination": 97.3649,
        "meta_ra_of_asc_node": 70.3316,
        "meta_arg_of_pericenter": 100.2869,
        "meta_mean_anomaly": 259.901,
        "meta_ephemeris_type": 0,
        "meta_classification_type": "U",
        "meta_norad_cat_id": 40298,
        "meta_element_set_no": 999,
        "meta_rev_at_epoch": 61688,
        "meta_bstar": 0.0004297253,
        "meta_mean_motion_dot": 9.102e-05,
        "meta_mean_motion_ddot": 0,
        "tle_line1": "1 40298U 14070A   25354.57533323  .00009102  00000+0  42973-3 0  9994",
        "tle_line2": "2 40298  97.3649  70.3316 0005713 100.2869 259.9010 15.19646389616882"
      },
      "geometry": {
        "type": "Point",
        "coordinates": [
          -95.75740699043901,
          61.2436768656735
        ]
      }
    },
    {
      "type": "Feature",
      "properties": {
        "norad_id": 40310,
        "name": "YAOGAN-24",
        "group": "resource",
        "lat": -79.94977720166366,
        "lon": -107.6922688418906,
        "alt_km": 657.9312133217854,
        "timestamp": "2025-12-20T20:38:44.101265+00:00",
        "meta_object_name": "YAOGAN-24",
        "meta_object_id": "2014-072A",
        "meta_epoch": "2025-12-20T14:34:25.160160",
        "meta_mean_motion": 14.76193835,
        "meta_eccentricity": 0.00151053,
        "meta_inclination": 98.1224,
        "meta_ra_of_asc_node": 125.7427,
        "meta_arg_of_pericenter": 114.3663,
        "meta_mean_anomaly": 245.9125,
        "meta_ephemeris_type": 0,
        "meta_classification_type": "U",
        "meta_norad_cat_id": 40310,
        "meta_element_set_no": 999,
        "meta_rev_at_epoch": 59737,
        "meta_bstar": 0.00019100471,
        "meta_mean_motion_dot": 1.27e-05,
        "meta_mean_motion_ddot": 0,
        "tle_line1": "1 40310U 14072A   25354.60723565  .00001270  00000+0  19100-3 0  9998",
        "tle_line2": "2 40310  98.1224 125.7427 0015105 114.3663 245.9125 14.76193835597376"
      },
      "geometry": {
        "type": "Point",
        "coordinates": [
          -107.6922688418906,
          -79.94977720166366
        ]
      }
    },
    {
      "type": "Feature",
      "properties": {
        "norad_id": 40336,
        "name": "CBERS 4",
        "group": "resource",
        "lat": -74.97505716858211,
        "lon": -160.48432327164264,
        "alt_km": 781.8229196096399,
        "timestamp": "2025-12-20T20:38:44.101275+00:00",
        "meta_object_name": "CBERS 4",
        "meta_object_id": "2014-079A",
        "meta_epoch": "2025-12-20T14:25:53.647104",
        "meta_mean_motion": 14.3552081,
        "meta_eccentricity": 0.00018115,
        "meta_inclination": 98.3303,
        "meta_ra_of_asc_node": 52.3495,
        "meta_arg_of_pericenter": 102.7405,
        "meta_mean_anomaly": 257.3984,
        "meta_ephemeris_type": 0,
        "meta_classification_type": "U",
        "meta_norad_cat_id": 40336,
        "meta_element_set_no": 999,
        "meta_rev_at_epoch": 57833,
        "meta_bstar": 7.7293606e-05,
        "meta_mean_motion_dot": 1.8e-06,
        "meta_mean_motion_ddot": 0,
        "tle_line1": "1 40336U 14079A   25354.60131536  .00000180  00000+0  77294-4 0  9992",
        "tle_line2": "2 40336  98.3303  52.3495 0001811 102.7405 257.3984 14.35520810578335"
      },
      "geometry": {
        "type": "Point",
        "coordinates": [
          -160.48432327164264,
          -74.97505716858211
        ]
      }
    },
    {
      "type": "Feature",
      "properties": {
        "norad_id": 40362,
        "name": "YAOGAN-26",
        "group": "resource",
        "lat": 4.137406825740325,
        "lon": -5.268674185973801,
        "alt_km": 446.4950218326567,
        "timestamp": "2025-12-20T20:38:44.101285+00:00",
        "meta_object_name": "YAOGAN-26",
        "meta_object_id": "2014-088A",
        "meta_epoch": "2025-12-20T14:23:16.425024",
        "meta_mean_motion": 15.39553641,
        "meta_eccentricity": 0.00051094,
        "meta_inclination": 97.0634,
        "meta_ra_of_asc_node": 354.9937,
        "meta_arg_of_pericenter": 6.5009,
        "meta_mean_anomaly": 353.6303,
        "meta_ephemeris_type": 0,
        "meta_classification_type": "U",
        "meta_norad_cat_id": 40362,
        "meta_element_set_no": 999,
        "meta_rev_at_epoch": 61015,
        "meta_bstar": 0.00025770763,
        "meta_mean_motion_dot": 0.0001006,
        "meta_mean_motion_ddot": 0,
        "tle_line1": "1 40362U 14088A   25354.59949566  .00010060  00000+0  25771-3 0  9999",
        "tle_line2": "2 40362  97.0634 354.9937 0005109   6.5009 353.6303 15.39553641610159"
      },
      "geometry": {
        "type": "Point",
        "coordinates": [
          -5.268674185973801,
          4.137406825740325
        ]
      }
    }
  ]
}